HULIANWANG DIGUI-156    
1 68130U 26047B   26195.58612291 -.00000101  00000+0  49200-4 0  9995
2 68130  50.0052 318.0462 0000848 200.3225 159.7613 13.29326177 16707
HULIANWANG DIGUI-157    
1 68131U 26047C   26195.57778587 -.00000114  00000+0  21654-4 0  9993
2 68131  50.0022 317.9736 0000895 195.9364 164.1480 13.29325415 16719
HULIANWANG DIGUI-158    
1 68132U 26047D   26195.56940062 -.00000087  00000+0  80901-4 0  9991
2 68132  50.0074 317.9787 0000956 196.6152 163.4689 13.29324302 16700
HULIANWANG DIGUI-159    
1 68133U 26047E   26195.71142592 -.00000100  00000+0  51867-4 0  9996
2 68133  50.0036 317.3638 0001057 191.7662 168.3186 13.29325990 16736
HULIANWANG DIGUI-160    
1 68134U 26047F   26195.61945685 -.00000090  00000+0  73357-4 0  9996
2 68134  50.0092 317.6062 0001102 180.2697 179.8174 13.29325748 16718
HULIANWANG DIGUI-161    
1 68135U 26047G   26195.55263932 -.00000097  00000+0  57448-4 0  9998
2 68135  50.0113 317.9400 0000917 194.0280 166.0567 13.29334363 16713
HULIANWANG DIGUI-162    
1 68136U 26047H   26195.76169350 -.00000093  00000+0  66530-4 0  9999
2 68136  50.0083 317.0151 0000901 201.0246 159.0589 13.29324173 16734
HULIANWANG DIGUI-163    
1 68137U 26047J   26195.67797244 -.00000092  00000+0  68307-4 0  9992
2 68137  50.0086 317.2434 0000769 200.6889 159.3952 13.29339040 16730
HULIANWANG DIGUI-164    
1 68656U 26076A   26195.92842456  .00000007  00000+0 -17311-4 0  9999
2 68656  86.4946  34.5084 0002031  78.7228 281.4135 13.24410831 13043
HULIANWANG DIGUI-165    
1 68657U 26076B   26195.92088309 -.00000015  00000+0 -69034-4 0  9998
2 68657  86.4965  34.5276 0002153  84.9534 275.1846 13.24413471 13044
HULIANWANG DIGUI-166    
1 68658U 26076C   26195.91338841 -.00000021  00000+0 -83626-4 0  9997
2 68658  86.4907  34.4617 0002120  84.8443 275.2933 13.24411473 13049
HULIANWANG DIGUI-167    
1 68659U 26076D   26195.90576879 -.00000002  00000+0 -38889-4 0  9992
2 68659  86.4961  34.5174 0002119  84.4317 275.7058 13.24413576 13042
HULIANWANG DIGUI-168    
1 68660U 26076E   26195.89821695 -.00000007  00000+0 -49446-4 0  9997
2 68660  86.4943  34.4932 0002140  85.2334 274.9044 13.24411781 13038
